{
  "type": "FeatureCollection",
  "features": [
    {
      "type": "Feature",
      "properties": {
        "norad_id": 29975,
        "name": "FENGYUN 1C DEB",
        "group": "fengyun-1c-debris",
        "lat": 80.57986581993705,
        "lon": -75.03656327934274,
        "alt_km": 854.0613353062854,
        "timestamp": "2025-12-07T05:38:10.177141+00:00",
        "meta_object_name": "FENGYUN 1C DEB",
        "meta_object_id": "1999-025KZ",
        "meta_epoch": "2025-12-06T16:00:48.212352",
        "meta_mean_motion": 13.98023981,
        "meta_eccentricity": 0.01139884,
        "meta_inclination": 99.3406,
        "meta_ra_of_asc_node": 21.6275,
        "meta_arg_of_pericenter": 30.2796,
        "meta_mean_anomaly": 84.55,
        "meta_ephemeris_type": 0,
        "meta_classification_type": "U",
        "meta_norad_cat_id": 29975,
        "meta_element_set_no": 999,
        "meta_rev_at_epoch": 96352,
        "meta_bstar": 0.0001517545,
        "meta_mean_motion_dot": 1.82e-06,
        "meta_mean_motion_ddot": 0,
        "tle_line1": "1 29975U 99025KZ  25340.66722468  .00000182  00000+0  15175-3 0  9994",
        "tle_line2": "2 29975  99.3406  21.6275 0113988  30.2796  84.5500 13.98023981963526"
      },
      "geometry": {
        "type": "Point",
        "coordinates": [
          -75.03656327934274,
          80.57986581993705
        ]
      }
    },
    {
      "type": "Feature",
      "properties": {
        "norad_id": 29976,
        "name": "FENGYUN 1C DEB",
        "group": "fengyun-1c-debris",
        "lat": -80.1517415805039,
        "lon": 93.94369963031343,
        "alt_km": 716.3233419845474,
        "timestamp": "2025-12-07T05:38:10.177151+00:00",
        "meta_object_name": "FENGYUN 1C DEB",
        "meta_object_id": "1999-025LA",
        "meta_epoch": "2025-12-06T13:32:31.314912",
        "meta_mean_motion": 13.98100023,
        "meta_eccentricity": 0.02675349,
        "meta_inclination": 98.9176,
        "meta_ra_of_asc_node": 338.0393,
        "meta_arg_of_pericenter": 256.6793,
        "meta_mean_anomaly": 235.2268,
        "meta_ephemeris_type": 0,
        "meta_classification_type": "U",
        "meta_norad_cat_id": 29976,
        "meta_element_set_no": 999,
        "meta_rev_at_epoch": 96250,
        "meta_bstar": 0.00038082534,
        "meta_mean_motion_dot": 6.89e-06,
        "meta_mean_motion_ddot": 0,
        "tle_line1": "1 29976U 99025LA  25340.56425133  .00000689  00000+0  38083-3 0  9998",
        "tle_line2": "2 29976  98.9176 338.0393 0267534 256.6793 235.2268 13.98100023962506"
      },
      "geometry": {
        "type": "Point",
        "coordinates": [
          93.94369963031343,
          -80.1517415805039
        ]
      }
    },
    {
      "type": "Feature",
      "properties": {
        "norad_id": 29977,
        "name": "FENGYUN 1C DEB",
        "group": "fengyun-1c-debris",
        "lat": 58.83063935320253,
        "lon": -170.44484248353154,
        "alt_km": 948.7634739426621,
        "timestamp": "2025-12-07T05:38:10.177162+00:00",
        "meta_object_name": "FENGYUN 1C DEB",
        "meta_object_id": "1999-025LB",
        "meta_epoch": "2025-12-06T14:06:14.647392",
        "meta_mean_motion": 14.0504496,
        "meta_eccentricity": 0.0128564,
        "meta_inclination": 98.3948,
        "meta_ra_of_asc_node": 203.0859,
        "meta_arg_of_pericenter": 274.4868,
        "meta_mean_anomaly": 112.9738,
        "meta_ephemeris_type": 0,
        "meta_classification_type": "U",
        "meta_norad_cat_id": 29977,
        "meta_element_set_no": 999,
        "meta_rev_at_epoch": 96274,
        "meta_bstar": 0.00231244,
        "meta_mean_motion_dot": 3.973e-05,
        "meta_mean_motion_ddot": 0,
        "tle_line1": "1 29977U 99025LB  25340.58766953  .00003973  00000+0  23124-2 0  9997",
        "tle_line2": "2 29977  98.3948 203.0859 0128564 274.4868 112.9738 14.05044960962741"
      },
      "geometry": {
        "type": "Point",
        "coordinates": [
          -170.44484248353154,
          58.83063935320253
        ]
      }
    },
    {
      "type": "Feature",
      "properties": {
        "norad_id": 29978,
        "name": "FENGYUN 1C DEB",
        "group": "fengyun-1c-debris",
        "lat": -36.62510092242397,
        "lon": 38.58561740554533,
        "alt_km": 927.6281419921079,
        "timestamp": "2025-12-07T05:38:10.177172+00:00",
        "meta_object_name": "FENGYUN 1C DEB",
        "meta_object_id": "1999-025LC",
        "meta_epoch": "2025-12-06T14:56:08.628576",
        "meta_mean_motion": 13.9590595,
        "meta_eccentricity": 0.00768805,
        "meta_inclination": 99.0624,
        "meta_ra_of_asc_node": 31.1696,
        "meta_arg_of_pericenter": 68.8331,
        "meta_mean_anomaly": 58.5688,
        "meta_ephemeris_type": 0,
        "meta_classification_type": "U",
        "meta_norad_cat_id": 29978,
        "meta_element_set_no": 999,
        "meta_rev_at_epoch": 96231,
        "meta_bstar": 0.0001386033,
        "meta_mean_motion_dot": 1.51e-06,
        "meta_mean_motion_ddot": 0,
        "tle_line1": "1 29978U 99025LC  25340.62232209  .00000151  00000+0  13860-3 0  9997",
        "tle_line2": "2 29978  99.0624  31.1696 0076880  68.8331  58.5688 13.95905950962318"
      },
      "geometry": {
        "type": "Point",
        "coordinates": [
          38.58561740554533,
          -36.62510092242397
        ]
      }
    },
    {
      "type": "Feature",
      "properties": {
        "norad_id": 29979,
        "name": "FENGYUN 1C DEB",
        "group": "fengyun-1c-debris",
        "lat": 73.98691104616178,
        "lon": -144.4443901400517,
        "alt_km": 778.051951881599,
        "timestamp": "2025-12-07T05:38:10.177182+00:00",
        "meta_object_name": "FENGYUN 1C DEB",
        "meta_object_id": "1999-025LD",
        "meta_epoch": "2025-12-06T14:33:08.011872",
        "meta_mean_motion": 14.25943577,
        "meta_eccentricity": 0.01072384,
        "meta_inclination": 98.3707,
        "meta_ra_of_asc_node": 4.0885,
        "meta_arg_of_pericenter": 180.9301,
        "meta_mean_anomaly": 299.4458,
        "meta_ephemeris_type": 0,
        "meta_classification_type": "U",
        "meta_norad_cat_id": 29979,
        "meta_element_set_no": 999,
        "meta_rev_at_epoch": 97986,
        "meta_bstar": 0.00079636587,
        "meta_mean_motion_dot": 1.976e-05,
        "meta_mean_motion_ddot": 0,
        "tle_line1": "1 29979U 99025LD  25340.60634273  .00001976  00000+0  79637-3 0  9993",
        "tle_line2": "2 29979  98.3707   4.0885 0107238 180.9301 299.4458 14.25943577979867"
      },
      "geometry": {
        "type": "Point",
        "coordinates": [
          -144.4443901400517,
          73.98691104616178
        ]
      }
    },
    {
      "type": "Feature",
      "properties": {
        "norad_id": 29980,
        "name": "FENGYUN 1C DEB",
        "group": "fengyun-1c-debris",
        "lat": 62.02113960713971,
        "lon": 134.2376632775108,
        "alt_km": 924.8839429297168,
        "timestamp": "2025-12-07T05:38:10.177192+00:00",
        "meta_object_name": "FENGYUN 1C DEB",
        "meta_object_id": "1999-025LE",
        "meta_epoch": "2025-12-06T10:41:19.566240",
        "meta_mean_motion": 14.06308989,
        "meta_eccentricity": 0.00867359,
        "meta_inclination": 98.5514,
        "meta_ra_of_asc_node": 149.9449,
        "meta_arg_of_pericenter": 265.8295,
        "meta_mean_anomaly": 122.4816,
        "meta_ephemeris_type": 0,
        "meta_classification_type": "U",
        "meta_norad_cat_id": 29980,
        "meta_element_set_no": 999,
        "meta_rev_at_epoch": 96904,
        "meta_bstar": 0.00024948899,
        "meta_mean_motion_dot": 3.84e-06,
        "meta_mean_motion_ddot": 0,
        "tle_line1": "1 29980U 99025LE  25340.44536535  .00000384  00000+0  24949-3 0  9997",
        "tle_line2": "2 29980  98.5514 149.9449 0086735 265.8295 122.4816 14.06308989969048"
      },
      "geometry": {
        "type": "Point",
        "coordinates": [
          134.2376632775108,
          62.02113960713971
        ]
      }
    },
    {
      "type": "Feature",
      "properties": {
        "norad_id": 29982,
        "name": "FENGYUN 1C DEB",
        "group": "fengyun-1c-debris",
        "lat": -9.165767021647733,
        "lon": 163.23405439310542,
        "alt_km": 614.6400303399059,
        "timestamp": "2025-12-07T05:38:10.177202+00:00",
        "meta_object_name": "FENGYUN 1C DEB",
        "meta_object_id": "1999-025LG",
        "meta_epoch": "2025-12-06T11:47:03.601824",
        "meta_mean_motion": 14.66805148,
        "meta_eccentricity": 0.0122154,
        "meta_inclination": 99.4014,
        "meta_ra_of_asc_node": 160.8503,
        "meta_arg_of_pericenter": 307.3899,
        "meta_mean_anomaly": 76.9202,
        "meta_ephemeris_type": 0,
        "meta_classification_type": "U",
        "meta_norad_cat_id": 29982,
        "meta_element_set_no": 999,
        "meta_rev_at_epoch": 192,
        "meta_bstar": 0.0011187922,
        "meta_mean_motion_dot": 6.914e-05,
        "meta_mean_motion_ddot": 0,
        "tle_line1": "1 29982U 99025LG  25340.49101391  .00006914  00000+0  11188-2 0  9997",
        "tle_line2": "2 29982  99.4014 160.8503 0122154 307.3899  76.9202 14.66805148  1927"
      },
      "geometry": {
        "type": "Point",
        "coordinates": [
          163.23405439310542,
          -9.165767021647733
        ]
      }
    }
  ]
}